[{"OBJECT_NAME":"STARLINK-4346","OBJECT_ID":"2022-077AG","EPOCH":"2026-03-09T23:20:05.829216","MEAN_MOTION":15.20483722,"ECCENTRICITY":0.00045407,"INCLINATION":97.6378,"RA_OF_ASC_NODE":257.0949,"ARG_OF_PERICENTER":212.0804,"MEAN_ANOMALY":148.0155,"EPHEMERIS_TYPE":0,"CLASSIFICATION_TYPE":"U","NORAD_CAT_ID":53073,"ELEMENT_SET_NO":999,"REV_AT_EPOCH":20134,"BSTAR":0.00030178555,"MEAN_MOTION_DOT":6.523e-5,"MEAN_MOTION_DDOT":0},{"OBJECT_NAME":"OBJECT A","OBJECT_ID":"2024-174A","EPOCH":"2026-03-09T17:44:03.378336","MEAN_MOTION":15.19157836,"ECCENTRICITY":0.00014022,"INCLINATION":97.4523,"RA_OF_ASC_NODE":77.8721,"ARG_OF_PERICENTER":95.7936,"MEAN_ANOMALY":264.3459,"EPHEMERIS_TYPE":0,"CLASSIFICATION_TYPE":"U","NORAD_CAT_ID":61238,"ELEMENT_SET_NO":999,"REV_AT_EPOCH":8058,"BSTAR":0.00024396244,"MEAN_MOTION_DOT":5.06e-5,"MEAN_MOTION_DDOT":0}]
